0 BREEZE-M DEB
1 38944U 12044CD  13282.23589168  .00410423  18707-4  63340-2 0  4889
2 38944 049.7272 227.4303 1698776 207.8228 142.0676 12.16710082 39865
0 BREEZE-M DEB
1 38944U 12044CD  13284.20569583  .00356355  15112-4  55113-2 0  4897
2 38944 049.7250 221.2965 1692335 212.9845 135.3354 12.18065275 40100
0 BREEZE-M DEB
1 38944U 12044CD  13285.18979770  .00319005  12929-4  48852-2 0  4906
2 38944 049.7301 218.2235 1689845 215.5832 131.9929 12.18734988 40227
0 BREEZE-M DEB
1 38944U 12044CD  13286.17339975  .00316837  12799-4  47750-2 0  4915
2 38944 049.7364 215.1475 1687890 218.1920 128.6696 12.19366139 40340
0 BREEZE-M DEB
1 38944U 12044CD  13287.15652464  .00331497  13606-4  50139-2 0  4928
2 38944 049.7360 212.0761 1685025 220.7672 125.4346 12.19929135 40462
0 BREEZE-M DEB
1 38944U 12044CD  13288.13915474  .00401899  18070-4  60537-2 0  4949
2 38944 049.7364 209.0027 1681704 223.3524 122.2307 12.20685785 40589
0 BREEZE-M DEB
1 38944U 12044CD  13288.13915834  .00427243  19894-4  64320-2 0  4938
2 38944 049.7357 209.0029 1681702 223.3466 122.2379 12.20690856 40580
0 BREEZE-M DEB
1 38944U 12044CD  13289.12118512  .00377981  16450-4  56819-2 0  4950
2 38944 049.7343 205.9291 1678591 225.9376 119.0652 12.21381757 40701
0 BREEZE-M DEB
1 38944U 12044CD  13290.10269762  .00362577  15456-4  54343-2 0  4965
2 38944 049.7344 202.8519 1675900 228.5296 115.9284 12.21998972 40824
0 BREEZE-M DEB
1 38944U 12044CD  13291.08372011  .00340731  14120-4  50795-2 0  4978
2 38944 049.7389 199.7691 1673250 231.1263 112.8272 12.22640895 40943
0 BREEZE-M DEB
1 38944U 12044CD  13291.16544704  .00331717  13595-4  49524-2 0  4985
2 38944 049.7424 199.5111 1672984 231.3427 112.5711 12.22679708 40956
0 BREEZE-M DEB
1 38944U 12044CD  13294.10563240  .00325460  13224-4  48449-2 0  4991
2 38944 049.7418 190.2698 1665344 239.1192 103.5463 12.24355767 41317
0 BREEZE-M DEB
1 38944U 12044CD  13295.08483004  .00317115  12755-4  46749-2 0  5008
2 38944 049.7398 187.1857 1663562 241.7233 100.6016 12.24868504 41434
0 BREEZE-M DEB
1 38944U 12044CD  13296.06363293  .00315386  12659-4  46946-2 0  5015
2 38944 049.7403 184.1028 1660351 244.3032 097.7432 12.25428207 41551
